WNISAT 1R               
1 42835U 17042L   26068.86192839  .00004802  00000+0  37840-3 0  9992
2 42835  97.4515 228.7079 0013301 131.3338 228.9034 15.01153186471607
STARLINK-5688           
1 55479U 23015AG  26068.00548711  .00000172  00000+0  27848-4 0  9991
2 55479  43.0057 317.3377 0001566 265.3428  94.7236 15.02536651170799
